{
    "vector_layers": [
        {
            "id": "boundaries",
            "fields": {
                "brk_a3": "String",
                "disputed": "Boolean",
                "kind": "String",
                "kind_detail": "Number",
                "sort_rank": "Number"
            },
            "minzoom": 0,
            "maxzoom": 15
        },
        {
            "id": "buildings",
            "fields": {
                "addr_housenumber": "String",
                "height": "Number",
                "kind": "String",
                "kind_detail": "String",
                "layer": "Number",
                "min_height": "Number",
                "sort_rank": "Number"
            },
            "minzoom": 11,
            "maxzoom": 15
        },
        {
            "id": "earth",
            "fields": {
                "kind": "String",
                "min_zoom": "Number",
                "name": "String",
                "name2": "String",
                "name3": "String",
                "name:ar": "String",
                "name:bg": "String",
                "name:cs": "String",
                "name:da": "String",
                "name:de": "String",
                "name:el": "String",
                "name:en": "String",
                "name:es": "String",
                "name:et": "String",
                "name:fa": "String",
                "name:fi": "String",
                "name:fr": "String",
                "name:ga": "String",
                "name:he": "String",
                "name:hi": "String",
                "name:hr": "String",
                "name:hu": "String",
                "name:id": "String",
                "name:it": "String",
                "name:ja": "String",
                "name:ko": "String",
                "name:lt": "String",
                "name:lv": "String",
                "name:mr": "String",
                "name:mt": "String",
                "name:ne": "String",
                "name:nl": "String",
                "name:no": "String",
                "name:pl": "String",
                "name:pt": "String",
                "name:ro": "String",
                "name:ru": "String",
                "name:sk": "String",
                "name:sl": "String",
                "name:sv": "String",
                "name:tr": "String",
                "name:uk": "String",
                "name:ur": "String",
                "name:vi": "String",
                "name:zh-Hans": "String",
                "name:zh-Hant": "String",
                "pgf:name2": "String",
                "pgf:name:hi": "String",
                "pgf:name:mr": "String",
                "pgf:name:ne": "String",
                "script": "String",
                "script2": "String",
                "script3": "String"
            },
            "minzoom": 0,
            "maxzoom": 15
        },
        {
            "id": "landcover",
            "fields": {
                "kind": "String"
            },
            "minzoom": 0,
            "maxzoom": 7
        },
        {
            "id": "landuse",
            "fields": {
                "kind": "String",
                "sort_rank": "Number"
            },
            "minzoom": 2,
            "maxzoom": 15
        },
        {
            "id": "places",
            "fields": {
                "capital": "String",
                "kind": "String",
                "kind_detail": "String",
                "min_zoom": "Number",
                "name": "String",
                "name2": "String",
                "name3": "String",
                "name:ar": "String",
                "name:bg": "String",
                "name:cs": "String",
                "name:da": "String",
                "name:de": "String",
                "name:el": "String",
                "name:en": "String",
                "name:es": "String",
                "name:et": "String",
                "name:fa": "String",
                "name:fi": "String",
                "name:fr": "String",
                "name:ga": "String",
                "name:he": "String",
                "name:hi": "String",
                "name:hr": "String",
                "name:hu": "String",
                "name:id": "String",
                "name:it": "String",
                "name:ja": "String",
                "name:ko": "String",
                "name:lt": "String",
                "name:lv": "String",
                "name:mr": "String",
                "name:mt": "String",
                "name:ne": "String",
                "name:nl": "String",
                "name:no": "String",
                "name:pl": "String",
                "name:pt": "String",
                "name:ro": "String",
                "name:ru": "String",
                "name:sk": "String",
                "name:sl": "String",
                "name:sv": "String",
                "name:tr": "String",
                "name:uk": "String",
                "name:ur": "String",
                "name:vi": "String",
                "name:zh-Hans": "String",
                "name:zh-Hant": "String",
                "pgf:name": "String",
                "pgf:name2": "String",
                "pgf:name:en": "String",
                "pgf:name:hi": "String",
                "pgf:name:mr": "String",
                "pgf:name:ne": "String",
                "population": "Number",
                "population_rank": "Number",
                "ref": "String",
                "ref:FR:FANTOIR": "String",
                "ref:FR:SIREN": "String",
                "ref:RS:nkd": "String",
                "ref:SE:pts:postort": "String",
                "ref:USCG": "String",
                "ref:USPS": "String",
                "ref:assessors_office": "String",
                "ref:catasto": "String",
                "ref:category": "String",
                "ref:en": "String",
                "ref:gdke": "String",
                "ref:lzh": "String",
                "ref:nan": "String",
                "ref:nan-Hans": "String",
                "ref:nan-Hant": "String",
                "ref:nan-Latn-pehoeji": "String",
                "ref:nan-Latn-tailo": "String",
                "ref:nid": "String",
                "ref:nuts:1": "String",
                "ref:nuts:2": "String",
                "ref:vi": "String",
                "ref:whc": "String",
                "ref:xpcc": "String",
                "ref:zh": "String",
                "ref:zh-Hans": "String",
                "ref:zh-Hant": "String",
                "script": "String",
                "script2": "String",
                "script3": "String",
                "sort_key": "Number",
                "wikidata": "String"
            },
            "minzoom": 1,
            "maxzoom": 15
        },
        {
            "id": "pois",
            "fields": {
                "elevation": "String",
                "iata": "String",
                "kind": "String",
                "kind_detail": "String",
                "min_zoom": "Number",
                "name": "String",
                "name2": "String",
                "name3": "String",
                "name:ar": "String",
                "name:bg": "String",
                "name:cs": "String",
                "name:da": "String",
                "name:de": "String",
                "name:el": "String",
                "name:en": "String",
                "name:es": "String",
                "name:et": "String",
                "name:fa": "String",
                "name:fi": "String",
                "name:fr": "String",
                "name:ga": "String",
                "name:he": "String",
                "name:hi": "String",
                "name:hr": "String",
                "name:hu": "String",
                "name:id": "String",
                "name:it": "String",
                "name:ja": "String",
                "name:ko": "String",
                "name:lt": "String",
                "name:lv": "String",
                "name:mr": "String",
                "name:mt": "String",
                "name:ne": "String",
                "name:nl": "String",
                "name:no": "String",
                "name:pl": "String",
                "name:pt": "String",
                "name:ro": "String",
                "name:ru": "String",
                "name:sk": "String",
                "name:sl": "String",
                "name:sv": "String",
                "name:tr": "String",
                "name:uk": "String",
                "name:ur": "String",
                "name:vi": "String",
                "name:zh-Hans": "String",
                "name:zh-Hant": "String",
                "pgf:name": "String",
                "pgf:name2": "String",
                "pgf:name3": "String",
                "pgf:name:en": "String",
                "pgf:name:fa": "String",
                "pgf:name:he": "String",
                "pgf:name:hi": "String",
                "pgf:name:mr": "String",
                "pgf:name:ne": "String",
                "script": "String",
                "script2": "String",
                "script3": "String"
            },
            "minzoom": 5,
            "maxzoom": 15
        },
        {
            "id": "roads",
            "fields": {
                "access": "String",
                "is_bridge": "Boolean",
                "is_link": "Boolean",
                "is_tunnel": "Boolean",
                "kind": "String",
                "kind_detail": "String",
                "min_zoom": "Number",
                "name": "String",
                "name2": "String",
                "name3": "String",
                "name:ar": "String",
                "name:bg": "String",
                "name:cs": "String",
                "name:da": "String",
                "name:de": "String",
                "name:el": "String",
                "name:en": "String",
                "name:es": "String",
                "name:et": "String",
                "name:fa": "String",
                "name:fi": "String",
                "name:fr": "String",
                "name:ga": "String",
                "name:he": "String",
                "name:hi": "String",
                "name:hr": "String",
                "name:hu": "String",
                "name:id": "String",
                "name:it": "String",
                "name:ja": "String",
                "name:ko": "String",
                "name:lt": "String",
                "name:lv": "String",
                "name:mr": "String",
                "name:mt": "String",
                "name:ne": "String",
                "name:nl": "String",
                "name:no": "String",
                "name:pl": "String",
                "name:pt": "String",
                "name:ro": "String",
                "name:ru": "String",
                "name:sk": "String",
                "name:sl": "String",
                "name:sv": "String",
                "name:tr": "String",
                "name:uk": "String",
                "name:ur": "String",
                "name:vi": "String",
                "name:zh-Hans": "String",
                "name:zh-Hant": "String",
                "network": "String",
                "oneway": "String",
                "pgf:name": "String",
                "pgf:name2": "String",
                "pgf:name:en": "String",
                "pgf:name:hi": "String",
                "pgf:name:mr": "String",
                "pgf:name:ne": "String",
                "ref": "String",
                "route": "String",
                "script": "String",
                "script2": "String",
                "script3": "String",
                "service": "String",
                "shield_text": "String",
                "sort_rank": "Number"
            },
            "minzoom": 3,
            "maxzoom": 15
        },
        {
            "id": "water",
            "fields": {
                "bridge": "String",
                "kind": "String",
                "kind_detail": "String",
                "layer": "Number",
                "min_zoom": "Number",
                "name": "String",
                "name2": "String",
                "name3": "String",
                "name:ar": "String",
                "name:bg": "String",
                "name:cs": "String",
                "name:da": "String",
                "name:de": "String",
                "name:el": "String",
                "name:en": "String",
                "name:es": "String",
                "name:et": "String",
                "name:fa": "String",
                "name:fi": "String",
                "name:fr": "String",
                "name:ga": "String",
                "name:he": "String",
                "name:hi": "String",
                "name:hr": "String",
                "name:hu": "String",
                "name:id": "String",
                "name:it": "String",
                "name:ja": "String",
                "name:ko": "String",
                "name:lt": "String",
                "name:lv": "String",
                "name:mr": "String",
                "name:mt": "String",
                "name:ne": "String",
                "name:nl": "String",
                "name:no": "String",
                "name:pl": "String",
                "name:pt": "String",
                "name:ro": "String",
                "name:ru": "String",
                "name:sk": "String",
                "name:sl": "String",
                "name:sv": "String",
                "name:tr": "String",
                "name:uk": "String",
                "name:ur": "String",
                "name:vi": "String",
                "name:zh-Hans": "String",
                "name:zh-Hant": "String",
                "pgf:name": "String",
                "pgf:name2": "String",
                "pgf:name:en": "String",
                "pgf:name:hi": "String",
                "pgf:name:mr": "String",
                "pgf:name:ne": "String",
                "script": "String",
                "script2": "String",
                "script3": "String",
                "sort_rank": "Number",
                "tunnel": "String"
            },
            "minzoom": 0,
            "maxzoom": 15
        }
    ],
    "attribution": "<a href=\"https://www.openstreetmap.org/copyright\" target=\"_blank\">&copy; OpenStreetMap</a>",
    "description": "Basemap layers derived from OpenStreetMap and Natural Earth",
    "name": "Protomaps Basemap",
    "pgf:devanagari:name": "NotoSansDevanagari-Regular",
    "pgf:devanagari:version": "1",
    "planetiler:buildtime": "2025-05-06T00:22:16.609Z",
    "planetiler:githash": "2c91725f6d048fd60b02d3e7c29bb88838451048",
    "planetiler:osm:osmosisreplicationseq": "117381",
    "planetiler:osm:osmosisreplicationtime": "2026-02-02T04:00:00Z",
    "planetiler:osm:osmosisreplicationurl": "https://planet.osm.org/replication/hour/",
    "planetiler:version": "0.9.0",
    "type": "baselayer",
    "version": "4.13.6"
}